STARLINK-4362           
1 53043U 22077A   22198.91667824  .00000100  00000+0  19094-5 0  9996
2 53043  97.6555  17.0910 0001448  99.8106  55.1182 15.70277206   371
STARLINK-4349           
1 53044U 22077B   22198.91667824 -.00004571  00000+0 -36649-4 0  9999
2 53044  97.6552  17.0910 0001414  85.9321  69.5916 15.70279942  1304
STARLINK-4350           
1 53045U 22077C   22198.91667824 -.00011561  00000+0 -94420-4 0  9998
2 53045  97.6556  17.0914 0001425  93.4117  62.7061 15.70284116  1307
STARLINK-4331           
1 53046U 22077D   22198.91667824 -.00015912  00000+0 -13042-3 0  9993
2 53046  97.6555  17.0916 0001490  90.8733  65.8394 15.70286821  1304
STARLINK-4352           
1 53047U 22077E   22198.91667824 -.00034130  00000+0 -28146-3 0  9998
2 53047  97.6555  17.0924 0001540 103.0215  54.8781 15.70298155  1303
STARLINK-4355           
1 53048U 22077F   22198.91667824 -.00023936  00000+0 -19688-3 0  9992
2 53048  97.6555  17.0919 0001548  92.8995  64.4069 15.70291863  1301
STARLINK-4345           
1 53049U 22077G   22198.91667824 -.00093489  00000+0 -77715-3 0  9998
2 53049  97.6555  17.0932 0001365  75.4795  84.1905 15.70335446  1303
STARLINK-4343           
1 53050U 22077H   22198.91667824 -.00052894  00000+0 -43758-3 0  9995
2 53050  97.6555  17.0924 0001387  94.5235  63.9668 15.70309729  1307
STARLINK-4336           
1 53051U 22077J   22198.91667824 -.00136667  00000+0 -11410-2 0  9996
2 53051  97.6555  17.0937 0001600  78.7929  82.0540 15.70364525  1300
STARLINK-4341           
1 53052U 22077K   22198.91667824 -.00069589  00000+0 -57693-3 0  9999
2 53052  97.6555  17.0928 0001311  92.3129  66.7685 15.70320133  1300
STARLINK-4337           
1 53053U 22077L   22198.91667824 -.00179638  00000+0 -15059-2 0  9996
2 53053  97.6555  17.0943 0001481  98.4146  63.6085 15.70394122  1301
STARLINK-4339           
1 53054U 22077M   22198.91667824 -.00114092  00000+0 -95043-3 0  9992
2 53054  97.6555  17.0933 0001485  75.1704  85.0887 15.70349078  1305
STARLINK-4338           
1 53055U 22077N   22198.91667824 -.00230392  00000+0 -19404-2 0  9991
2 53055  97.6555  17.0949 0001331  93.5627  69.6321 15.70430240  1304
STARLINK-4314           
1 53056U 22077P   22198.91667824 -.00159343  00000+0 -13332-2 0  9992
2 53056  97.6554  17.0939 0001502  95.1702  66.2638 15.70380454  1300
STARLINK-4252           
1 53057U 22077Q   22198.91667824 -.00276566  00000+0 -23387-2 0  9991
2 53057  97.6555  17.0955 0001593  80.3227  84.0433 15.70465168  1305
STARLINK-4317           
1 53058U 22077R   22198.91667824 -.00205447  00000+0 -17264-2 0  9999
2 53058  97.6555  17.0945 0001336  90.4615  72.1475 15.70412297  1302
STARLINK-4320           
1 53059U 22077S   22198.91667824 -.00321905  00000+0 -27327-2 0  9999
2 53059  97.6554  17.0960 0001504  94.6631  70.8714 15.70501720  1301
STARLINK-4305           
1 53060U 22077T   22198.91667824 -.00254341  00000+0 -21466-2 0  9998
2 53060  97.6555  17.0951 0001471  85.9442  77.8357 15.70448407  1302
STARLINK-4308           
1 53061U 22077U   22198.91667824 -.00371372  00000+0 -31659-2 0  9998
2 53061  97.6553  17.0966 0001383  93.0603  73.6398 15.70542181  1301
STARLINK-4311           
1 53062U 22077V   22198.91667824 -.00299661  00000+0 -25390-2 0  9994
2 53062  97.6555  17.0956 0001622  94.5703  70.3799 15.70483695  1309
STARLINK-4307           
1 53063U 22077W   22198.91667824 -.00425201  00000+0 -36409-2 0  9999
2 53063  97.6555  17.0973 0001555  84.7476  83.1145 15.70587329  1308
STARLINK-4313           
1 53064U 22077X   22198.91667824 -.00349088  00000+0 -29705-2 0  9999
2 53064  97.6555  17.0962 0001418  95.1133  71.0047 15.70522531  1302
STARLINK-4312           
1 53065U 22077Y   22198.91667824 -.00450345  00000+0 -38640-2 0  9997
2 53065  97.6552  17.0975 0001591  88.6827  79.7597 15.70609773  1302
STARLINK-4309           
1 53066U 22077Z   22198.91667824 -.00397822  00000+0 -33988-2 0  9998
2 53066  97.6556  17.0968 0001459  99.9928  67.2886 15.70564340  1302
STARLINK-4306           
1 53067U 22077AA  22198.91667824 -.00524595  00000+0 -45272-2 0  9997
2 53067  97.6553  17.0983 0001468  74.7061  95.4695 15.70681450  1309
STARLINK-4325           
1 53068U 22077AB  22198.91667824 -.00474235  00000+0 -40766-2 0  9996
2 53068  97.6556  17.0975 0001555  90.1015  78.9195 15.70632602  1308
STARLINK-4323           
1 53069U 22077AC  22198.91667824 -.00585463  00000+0 -50767-2 0  9995
2 53069  97.6556  17.0988 0001564  86.8729  84.4534 15.70738125  1303
STARLINK-4342           
1 53070U 22077AD  22198.91667824 -.00504528  00000+0 -43477-2 0  9990
2 53070  97.6556  17.0978 0001502  89.2462  80.3523 15.70659416  1305
STARLINK-4328           
1 53071U 22077AE  22198.91667824 -.00642682  00000+0 -55968-2 0  9993
2 53071  97.6555  17.0993 0001638  93.7555  78.7164 15.70796642  1300
STARLINK-4344           
1 53072U 22077AF  22198.91667824 -.00556058  00000+0 -48108-2 0  9993
2 53072  97.6554  17.0983 0001477  84.2206  86.5308 15.70709986  1300
STARLINK-4346           
1 53073U 22077AG  22198.91667824 -.00700351  00000+0 -61252-2 0  9996
2 53073  97.6554  17.0999 0001518  96.1865  77.4263 15.70858483  1303
STARLINK-4310           
1 53074U 22077AH  22198.91667824 -.00620167  00000+0 -53922-2 0  9998
2 53074  97.6553  17.0990 0001642  81.8108  90.0876 15.70770806  1306
STARLINK-4348           
1 53075U 22077AJ  22198.91667824 -.00754944  00000+0 -66281-2 0  9992
2 53075  97.6556  17.1004 0001590  86.4049  88.3452 15.70921269  1305
STARLINK-4347           
1 53076U 22077AK  22198.91667824 -.00670422  00000+0 -58504-2 0  9990
2 53076  97.6557  17.0995 0001570  94.3969  78.6463 15.70826478  1302
STARLINK-4315           
1 53077U 22077AL  22198.91667824 -.00807173  00000+0 -71114-2 0  9998
2 53077  97.6554  17.1010 0001755  77.4192  98.4636 15.70985840  1305
STARLINK-4322           
1 53078U 22077AM  22198.91667824 -.00727555  00000+0 -63755-2 0  9996
2 53078  97.6553  17.1000 0001508  86.6434  87.5387 15.70889409  1307
STARLINK-4327           
1 53079U 22077AN  22198.91667824 -.00831515  00000+0 -73379-2 0  9992
2 53079  97.6556  17.1013 0001683  97.4203  79.0287 15.71017229  1302
STARLINK-4330           
1 53080U 22077AP  22198.91667824 -.00783246  00000+0 -68899-2 0  9992
2 53080  97.6555  17.1006 0001727  75.9214  99.3952 15.70954669  1308
STARLINK-4326           
1 53081U 22077AQ  22198.91667824 -.00876796  00000+0 -77596-2 0  9990
2 53081  97.6555  17.1018 0001499  89.1621  88.4134 15.71081618  1304
STARLINK-4321           
1 53082U 22077AR  22198.91667824 -.00860403  00000+0 -76081-2 0  9997
2 53082  97.6555  17.1014 0001612  90.3838  86.6283 15.71053242  1309
STARLINK-4351           
1 53083U 22077AS  22198.91667824 -.00922697  00000+0 -81879-2 0  9993
2 53083  97.6555  17.1024 0001811  68.7917 109.9081 15.71147687  1301
STARLINK-4319           
1 53084U 22077AT  22198.91667824 -.00900089  00000+0 -79770-2 0  9992
2 53084  97.6556  17.1018 0001634  88.5419  89.5960 15.71114270  1307
STARLINK-4324           
1 53085U 22077AU  22198.91667824 -.00984503  00000+0 -86203-2 0  9995
2 53085  97.6555  17.1029 0001759  93.3080  86.5081 15.71217698  1304
STARLINK-4318           
1 53086U 22077AV  22198.91667824 -.00962384  00000+0 -84194-2 0  9996
2 53086  97.6555  17.1024 0001808  88.1832  91.0751 15.71183804  1308
STARLINK-4329           
1 53087U 22077AW  22198.91667824 -.01026061  00000+0 -89980-2 0  9999
2 53087  97.6555  17.1034 0001565  89.3840  91.5483 15.71284592  1305
STARLINK-4333           
1 53088U 22077AX  22198.91667824 -.01006687  00000+0 -88219-2 0  9996
2 53088  97.6555  17.1029 0001676  96.7849  83.5887 15.71252795  1303
FALCON 9 DEB            
1 53089U 22077AY  22198.73322148  .00155352  00000+0  58353-3 0  9992
2 53089  97.6760  16.9832 0008806 230.9853 129.0634 15.87378346  1067
FALCON 9 DEB            
1 53090U 22077AZ  22198.73162086  .00163927  00000+0  60239-3 0  9990
2 53090  97.6746  16.9842 0007314 213.1589 146.9224 15.87824262  1062
FALCON 9 DEB            
1 53091U 22077BA  22198.72720924  .00169788  12580-4  59976-3 0  9999
2 53091  97.6701  16.9860 0012340 212.9899 147.0604 15.88968355  1067
FALCON 9 DEB            
1 53092U 22077BB  22198.72582966  .00165813  12139-4  57694-3 0  9992
2 53092  97.6690  16.9866 0012252 197.7510 162.3335 15.89274430  1069
TIANLIAN 2-03           
1 53100U 22078A   22194.13372968  .00109935 -28304-6  65800-2 0  9997
2 53100  27.1649 175.2060 7307300 174.7636 353.4062  2.27980749    17
CZ-3B R/B               
1 53101U 22078B   22198.15366230  .00042279  12308-5  11566-2 0  9991
2 53101  27.1328 174.0938 7244802 176.3742 195.7986  2.37108290   113
LARES-2                 
1 53105U 22080A   22198.04600985 -.00000012  00000+0  00000+0 0  9992
2 53105  70.1461  76.1619 0005894 284.7543 245.3769  6.38964621   229
2022-080B               
1 53106U 22080B   22198.18935576 -.00000003  00000+0  00000+0 0  9995
2 53106  70.1501  76.1200 0008348 233.0213 312.7912  6.42567105   229
2022-080C               
1 53107U 22080C   22198.17845311 -.00000003  00000+0  00000+0 0  9992
2 53107  70.1476  76.1250 0011582 253.7938 261.1306  6.42121727   122
2022-080D               
1 53108U 22080D   22198.17845311 -.00000003  00000+0  00000+0 0  9993
2 53108  70.1751  76.1156 0002898 285.6762 229.6048  6.42148223   136
2022-080E               
1 53109U 22080E   22198.57576197 -.00000003  00000+0  00000+0 0  9991
2 53109  70.1425  75.7927 0008991 243.8201 116.1535  6.42584528   144
2022-080F               
1 53110U 22080F   22198.18615493 -.00000003  00000+0  00000+0 0  9993
2 53110  70.1338  76.1122 0042512  99.6734  77.9708  6.42553394   116
2022-080G               
1 53111U 22080G   22198.10916232 -.00000003  00000+0  00000+0 0  9991
2 53111  70.1471  76.1532 0010630 257.1283 102.9435  6.42553560   106
